[{"OBJECT_NAME":"SJ-12","OBJECT_ID":"2010-027A","EPOCH":"2026-03-10T00:04:35.105376","MEAN_MOTION":15.157144,"ECCENTRICITY":0.00084513,"INCLINATION":97.7698,"RA_OF_ASC_NODE":84.3817,"ARG_OF_PERICENTER":81.2995,"MEAN_ANOMALY":278.9193,"EPHEMERIS_TYPE":0,"CLASSIFICATION_TYPE":"U","NORAD_CAT_ID":36596,"ELEMENT_SET_NO":999,"REV_AT_EPOCH":85983,"BSTAR":0.0003694862,"MEAN_MOTION_DOT":6.976e-5,"MEAN_MOTION_DDOT":0},{"OBJECT_NAME":"STARLINK-1417","OBJECT_ID":"2020-035AN","EPOCH":"2026-03-09T06:25:21.276768","MEAN_MOTION":15.12514223,"ECCENTRICITY":0.00021286,"INCLINATION":53.0515,"RA_OF_ASC_NODE":56.2233,"ARG_OF_PERICENTER":233.0338,"MEAN_ANOMALY":127.0459,"EPHEMERIS_TYPE":0,"CLASSIFICATION_TYPE":"U","NORAD_CAT_ID":45693,"ELEMENT_SET_NO":999,"REV_AT_EPOCH":31883,"BSTAR":0.0019843855,"MEAN_MOTION_DOT":0.00034834,"MEAN_MOTION_DDOT":0}]
